SENTINEL-6              
1 46984U 20086A   24282.83213746 -.00000035  00000+0  11459-3 0  9990
2 46984  66.0436 335.2319 0007882 269.3192  90.6921 12.80928970181509
